{
  "type": "FeatureCollection",
  "features": [
    {
      "type": "Feature",
      "properties": {
        "norad_id": 56564,
        "name": "BEIDOU-3 G4 (C62)",
        "group": "beidou",
        "lat": 0.7884723810930402,
        "lon": 50.195784104930205,
        "alt_km": 35791.713042194504,
        "timestamp": "2025-12-18T10:51:26.071857+00:00",
        "meta_object_name": "BEIDOU-3 G4 (C62)",
        "meta_object_id": "2023-066A",
        "meta_epoch": "2025-12-17T20:56:06.838368",
        "meta_mean_motion": 1.00271722,
        "meta_eccentricity": 0.00027648,
        "meta_inclination": 0.8039,
        "meta_ra_of_asc_node": 302.4518,
        "meta_arg_of_pericenter": 227.2526,
        "meta_mean_anomaly": 31.1294,
        "meta_ephemeris_type": 0,
        "meta_classification_type": "U",
        "meta_norad_cat_id": 56564,
        "meta_element_set_no": 999,
        "meta_rev_at_epoch": 957,
        "meta_bstar": 0,
        "meta_mean_motion_dot": -8.5e-07,
        "meta_mean_motion_ddot": 0,
        "tle_line1": "1 56564U 23066A   25351.87230137 -.00000085  00000+0  00000+0 0  9992",
        "tle_line2": "2 56564   0.8039 302.4518 0002764 227.2526  31.1294  1.00271722  9579"
      },
      "geometry": {
        "type": "Point",
        "coordinates": [
          50.195784104930205,
          0.7884723810930402
        ]
      }
    },
    {
      "type": "Feature",
      "properties": {
        "norad_id": 58654,
        "name": "BEIDOU-3 M28 (C50)",
        "group": "beidou",
        "lat": 51.81947513563268,
        "lon": 128.91461917864592,
        "alt_km": 21528.917748955988,
        "timestamp": "2025-12-18T10:51:26.071869+00:00",
        "meta_object_name": "BEIDOU-3 M28 (C50)",
        "meta_object_id": "2023-207A",
        "meta_epoch": "2025-12-17T06:29:44.947968",
        "meta_mean_motion": 1.86229839,
        "meta_eccentricity": 0.00025948,
        "meta_inclination": 55.5883,
        "meta_ra_of_asc_node": 68.448,
        "meta_arg_of_pericenter": 271.6936,
        "meta_mean_anomaly": 88.3013,
        "meta_ephemeris_type": 0,
        "meta_classification_type": "U",
        "meta_norad_cat_id": 58654,
        "meta_element_set_no": 999,
        "meta_rev_at_epoch": 1345,
        "meta_bstar": 0,
        "meta_mean_motion_dot": -7.5e-07,
        "meta_mean_motion_ddot": 0,
        "tle_line1": "1 58654U 23207A   25351.27065912 -.00000075  00000+0  00000+0 0  9991",
        "tle_line2": "2 58654  55.5883  68.4480 0002594 271.6936  88.3013  1.86229839 13452"
      },
      "geometry": {
        "type": "Point",
        "coordinates": [
          128.91461917864592,
          51.81947513563268
        ]
      }
    },
    {
      "type": "Feature",
      "properties": {
        "norad_id": 58655,
        "name": "BEIDOU-3 M26 (C48)",
        "group": "beidou",
        "lat": -22.753317424841594,
        "lon": -94.91317301347017,
        "alt_km": 21523.892906442547,
        "timestamp": "2025-12-18T10:51:26.071881+00:00",
        "meta_object_name": "BEIDOU-3 M26 (C48)",
        "meta_object_id": "2023-207B",
        "meta_epoch": "2025-12-17T14:31:30.906048",
        "meta_mean_motion": 1.86231342,
        "meta_eccentricity": 0.00040018,
        "meta_inclination": 55.5906,
        "meta_ra_of_asc_node": 68.4229,
        "meta_arg_of_pericenter": 257.9174,
        "meta_mean_anomaly": 102.0639,
        "meta_ephemeris_type": 0,
        "meta_classification_type": "U",
        "meta_norad_cat_id": 58655,
        "meta_element_set_no": 999,
        "meta_rev_at_epoch": 1344,
        "meta_bstar": 0,
        "meta_mean_motion_dot": -7.2e-07,
        "meta_mean_motion_ddot": 0,
        "tle_line1": "1 58655U 23207B   25351.60521882 -.00000072  00000+0  00000+0 0  9999",
        "tle_line2": "2 58655  55.5906  68.4229 0004001 257.9174 102.0639  1.86231342 13445"
      },
      "geometry": {
        "type": "Point",
        "coordinates": [
          -94.91317301347017,
          -22.753317424841594
        ]
      }
    },
    {
      "type": "Feature",
      "properties": {
        "norad_id": 61186,
        "name": "BEIDOU-3 M25 (C47)",
        "group": "beidou",
        "lat": -27.969884486007235,
        "lon": -73.6380313097099,
        "alt_km": 21518.048348277665,
        "timestamp": "2025-12-18T10:51:26.071893+00:00",
        "meta_object_name": "BEIDOU-3 M25 (C47)",
        "meta_object_id": "2024-168B",
        "meta_epoch": "2025-12-17T10:14:26.230272",
        "meta_mean_motion": 1.86230291,
        "meta_eccentricity": 0.00054394,
        "meta_inclination": 54.6378,
        "meta_ra_of_asc_node": 308.5577,
        "meta_arg_of_pericenter": 298.8835,
        "meta_mean_anomaly": 58.2936,
        "meta_ephemeris_type": 0,
        "meta_classification_type": "U",
        "meta_norad_cat_id": 61186,
        "meta_element_set_no": 999,
        "meta_rev_at_epoch": 839,
        "meta_bstar": 0,
        "meta_mean_motion_dot": -9.1e-07,
        "meta_mean_motion_ddot": 0,
        "tle_line1": "1 61186U 24168B   25351.42669248 -.00000091  00000+0  00000+0 0  9999",
        "tle_line2": "2 61186  54.6378 308.5577 0005439 298.8835  58.2936  1.86230291  8391"
      },
      "geometry": {
        "type": "Point",
        "coordinates": [
          -73.6380313097099,
          -27.969884486007235
        ]
      }
    },
    {
      "type": "Feature",
      "properties": {
        "norad_id": 61187,
        "name": "BEIDOU-3 M27 (C49)",
        "group": "beidou",
        "lat": 53.46081366022167,
        "lon": 55.20122801604997,
        "alt_km": 21525.44012651944,
        "timestamp": "2025-12-18T10:51:26.071905+00:00",
        "meta_object_name": "BEIDOU-3 M27 (C49)",
        "meta_object_id": "2024-168C",
        "meta_epoch": "2025-12-17T09:44:22.026336",
        "meta_mean_motion": 1.86230445,
        "meta_eccentricity": 0.00024936,
        "meta_inclination": 54.6333,
        "meta_ra_of_asc_node": 308.542,
        "meta_arg_of_pericenter": 338.9889,
        "meta_mean_anomaly": 139.133,
        "meta_ephemeris_type": 0,
        "meta_classification_type": "U",
        "meta_norad_cat_id": 61187,
        "meta_element_set_no": 999,
        "meta_rev_at_epoch": 587,
        "meta_bstar": 0,
        "meta_mean_motion_dot": -9.1e-07,
        "meta_mean_motion_ddot": 0,
        "tle_line1": "1 61187U 24168C   25351.40581049 -.00000091  00000+0  00000+0 0  9990",
        "tle_line2": "2 61187  54.6333 308.5420 0002493 338.9889 139.1330  1.86230445  5870"
      },
      "geometry": {
        "type": "Point",
        "coordinates": [
          55.20122801604997,
          53.46081366022167
        ]
      }
    }
  ]
}